NOAA 18                 
1 28654U 05018A   26083.19227559  .00000065  00000+0  57751-4 0  9997
2 28654  98.8137 164.0951 0014794  36.5142 323.7037 14.13713714 74306
NOAA 19                 
1 33591U 09005A   26083.24682593  .00000051  00000+0  51095-4 0  9992
2 33591  98.9580 154.0405 0012692 270.3001  89.6717 14.13459503882487
SUOMI NPP               
1 37849U 11061A   26083.26327801  .00000085  00000+0  61342-4 0  9990
2 37849  98.7886  24.7515 0001430 170.3555 189.7649 14.19497128746396
NOAA 20 (JPSS-1)        
1 43013U 17073A   26083.20735359  .00000096  00000+0  66312-4 0  9998
2 43013  98.7708  23.4516 0001765 118.3309 241.8045 14.19539743432411
