[{"OBJECT_NAME":"NOAA 18","OBJECT_ID":"2005-018A","EPOCH":"2026-03-24T04:36:52.610976","MEAN_MOTION":14.13713714,"ECCENTRICITY":0.00147945,"INCLINATION":98.8137,"RA_OF_ASC_NODE":164.0951,"ARG_OF_PERICENTER":36.5142,"MEAN_ANOMALY":323.7037,"EPHEMERIS_TYPE":0,"CLASSIFICATION_TYPE":"U","NORAD_CAT_ID":28654,"ELEMENT_SET_NO":999,"REV_AT_EPOCH":7430,"BSTAR":5.7751306e-5,"MEAN_MOTION_DOT":6.5e-7,"MEAN_MOTION_DDOT":0},{"OBJECT_NAME":"NOAA 19","OBJECT_ID":"2009-005A","EPOCH":"2026-03-24T05:55:25.760352","MEAN_MOTION":14.13459503,"ECCENTRICITY":0.00126928,"INCLINATION":98.958,"RA_OF_ASC_NODE":154.0405,"ARG_OF_PERICENTER":270.3001,"MEAN_ANOMALY":89.6717,"EPHEMERIS_TYPE":0,"CLASSIFICATION_TYPE":"U","NORAD_CAT_ID":33591,"ELEMENT_SET_NO":999,"REV_AT_EPOCH":88248,"BSTAR":5.1094703e-5,"MEAN_MOTION_DOT":5.1e-7,"MEAN_MOTION_DDOT":0},{"OBJECT_NAME":"SUOMI NPP","OBJECT_ID":"2011-061A","EPOCH":"2026-03-24T06:19:07.220064","MEAN_MOTION":14.19497128,"ECCENTRICITY":0.000143,"INCLINATION":98.7886,"RA_OF_ASC_NODE":24.7515,"ARG_OF_PERICENTER":170.3555,"MEAN_ANOMALY":189.7649,"EPHEMERIS_TYPE":0,"CLASSIFICATION_TYPE":"U","NORAD_CAT_ID":37849,"ELEMENT_SET_NO":999,"REV_AT_EPOCH":74639,"BSTAR":6.1342e-5,"MEAN_MOTION_DOT":8.5e-7,"MEAN_MOTION_DDOT":0},{"OBJECT_NAME":"NOAA 20 (JPSS-1)","OBJECT_ID":"2017-073A","EPOCH":"2026-03-24T04:58:35.350176","MEAN_MOTION":14.19539743,"ECCENTRICITY":0.00017654,"INCLINATION":98.7708,"RA_OF_ASC_NODE":23.4516,"ARG_OF_PERICENTER":118.3309,"MEAN_ANOMALY":241.8045,"EPHEMERIS_TYPE":0,"CLASSIFICATION_TYPE":"U","NORAD_CAT_ID":43013,"ELEMENT_SET_NO":999,"REV_AT_EPOCH":43241,"BSTAR":6.631242e-5,"MEAN_MOTION_DOT":9.6e-7,"MEAN_MOTION_DDOT":0}]
